<?xml version="1.0" encoding="UTF-8"?>
<ndm xmlns:xsi="http://www.w3.org/2001/XMLSchema-instance" xsi:noNamespaceSchemaLocation="https://sanaregistry.org/r/ndmxml_unqualified/ndmxml-2.0.0-master-2.0.xsd">
<omm id="CCSDS_OMM_VERS" version="2.0">
<header><CREATION_DATE/><ORIGINATOR/></header><body><segment><metadata><OBJECT_NAME>KUIPER-00136</OBJECT_NAME><OBJECT_ID>2025-228R</OBJECT_ID><CENTER_NAME>EARTH</CENTER_NAME><REF_FRAME>TEME</REF_FRAME><TIME_SYSTEM>UTC</TIME_SYSTEM><MEAN_ELEMENT_THEORY>SGP4</MEAN_ELEMENT_THEORY></metadata><data><meanElements><EPOCH>2025-12-12T07:50:50.047296</EPOCH><MEAN_MOTION>15.33829149</MEAN_MOTION><ECCENTRICITY>.00056238</ECCENTRICITY><INCLINATION>51.8802</INCLINATION><RA_OF_ASC_NODE>22.5265</RA_OF_ASC_NODE><ARG_OF_PERICENTER>11.4646</ARG_OF_PERICENTER><MEAN_ANOMALY>348.6467</MEAN_ANOMALY></meanElements><tleParameters><EPHEMERIS_TYPE>0</EPHEMERIS_TYPE><CLASSIFICATION_TYPE>U</CLASSIFICATION_TYPE><NORAD_CAT_ID>65962</NORAD_CAT_ID><ELEMENT_SET_NO>999</ELEMENT_SET_NO><REV_AT_EPOCH>1035</REV_AT_EPOCH><BSTAR>.16334197E-2</BSTAR><MEAN_MOTION_DOT>.54287E-3</MEAN_MOTION_DOT><MEAN_MOTION_DDOT>0</MEAN_MOTION_DDOT></tleParameters></data></segment></body></omm>
<omm id="CCSDS_OMM_VERS" version="2.0">
<header><CREATION_DATE/><ORIGINATOR/></header><body><segment><metadata><OBJECT_NAME>KUIPER-00137</OBJECT_NAME><OBJECT_ID>2025-228S</OBJECT_ID><CENTER_NAME>EARTH</CENTER_NAME><REF_FRAME>TEME</REF_FRAME><TIME_SYSTEM>UTC</TIME_SYSTEM><MEAN_ELEMENT_THEORY>SGP4</MEAN_ELEMENT_THEORY></metadata><data><meanElements><EPOCH>2025-12-14T08:22:53.892768</EPOCH><MEAN_MOTION>15.35958450</MEAN_MOTION><ECCENTRICITY>.00065512</ECCENTRICITY><INCLINATION>51.8808</INCLINATION><RA_OF_ASC_NODE>12.8466</RA_OF_ASC_NODE><ARG_OF_PERICENTER>31.4720</ARG_OF_PERICENTER><MEAN_ANOMALY>328.6658</MEAN_ANOMALY></meanElements><tleParameters><EPHEMERIS_TYPE>0</EPHEMERIS_TYPE><CLASSIFICATION_TYPE>U</CLASSIFICATION_TYPE><NORAD_CAT_ID>65963</NORAD_CAT_ID><ELEMENT_SET_NO>999</ELEMENT_SET_NO><REV_AT_EPOCH>1066</REV_AT_EPOCH><BSTAR>.14235906E-2</BSTAR><MEAN_MOTION_DOT>.50586E-3</MEAN_MOTION_DOT><MEAN_MOTION_DDOT>0</MEAN_MOTION_DDOT></tleParameters></data></segment></body></omm>
<omm id="CCSDS_OMM_VERS" version="2.0">
<header><CREATION_DATE/><ORIGINATOR/></header><body><segment><metadata><OBJECT_NAME>KUIPER-00138</OBJECT_NAME><OBJECT_ID>2025-228T</OBJECT_ID><CENTER_NAME>EARTH</CENTER_NAME><REF_FRAME>TEME</REF_FRAME><TIME_SYSTEM>UTC</TIME_SYSTEM><MEAN_ELEMENT_THEORY>SGP4</MEAN_ELEMENT_THEORY></metadata><data><meanElements><EPOCH>2025-12-14T06:54:59.249664</EPOCH><MEAN_MOTION>15.35989969</MEAN_MOTION><ECCENTRICITY>.00079801</ECCENTRICITY><INCLINATION>51.8795</INCLINATION><RA_OF_ASC_NODE>13.1767</RA_OF_ASC_NODE><ARG_OF_PERICENTER>34.3160</ARG_OF_PERICENTER><MEAN_ANOMALY>325.8340</MEAN_ANOMALY></meanElements><tleParameters><EPHEMERIS_TYPE>0</EPHEMERIS_TYPE><CLASSIFICATION_TYPE>U</CLASSIFICATION_TYPE><NORAD_CAT_ID>65964</NORAD_CAT_ID><ELEMENT_SET_NO>999</ELEMENT_SET_NO><REV_AT_EPOCH>1065</REV_AT_EPOCH><BSTAR>.13408881E-2</BSTAR><MEAN_MOTION_DOT>.4767E-3</MEAN_MOTION_DOT><MEAN_MOTION_DDOT>0</MEAN_MOTION_DDOT></tleParameters></data></segment></body></omm>
<omm id="CCSDS_OMM_VERS" version="2.0">
<header><CREATION_DATE/><ORIGINATOR/></header><body><segment><metadata><OBJECT_NAME>KUIPER-00140</OBJECT_NAME><OBJECT_ID>2025-228U</OBJECT_ID><CENTER_NAME>EARTH</CENTER_NAME><REF_FRAME>TEME</REF_FRAME><TIME_SYSTEM>UTC</TIME_SYSTEM><MEAN_ELEMENT_THEORY>SGP4</MEAN_ELEMENT_THEORY></metadata><data><meanElements><EPOCH>2025-12-14T07:08:53.835648</EPOCH><MEAN_MOTION>15.35177618</MEAN_MOTION><ECCENTRICITY>.0007865</ECCENTRICITY><INCLINATION>51.8802</INCLINATION><RA_OF_ASC_NODE>13.2453</RA_OF_ASC_NODE><ARG_OF_PERICENTER>27.8941</ARG_OF_PERICENTER><MEAN_ANOMALY>332.2465</MEAN_ANOMALY></meanElements><tleParameters><EPHEMERIS_TYPE>0</EPHEMERIS_TYPE><CLASSIFICATION_TYPE>U</CLASSIFICATION_TYPE><NORAD_CAT_ID>65965</NORAD_CAT_ID><ELEMENT_SET_NO>999</ELEMENT_SET_NO><REV_AT_EPOCH>1065</REV_AT_EPOCH><BSTAR>.10037572E-2</BSTAR><MEAN_MOTION_DOT>.34605E-3</MEAN_MOTION_DOT><MEAN_MOTION_DDOT>0</MEAN_MOTION_DDOT></tleParameters></data></segment></body></omm>
<omm id="CCSDS_OMM_VERS" version="2.0">
<header><CREATION_DATE/><ORIGINATOR/></header><body><segment><metadata><OBJECT_NAME>KUIPER-00141</OBJECT_NAME><OBJECT_ID>2025-228V</OBJECT_ID><CENTER_NAME>EARTH</CENTER_NAME><REF_FRAME>TEME</REF_FRAME><TIME_SYSTEM>UTC</TIME_SYSTEM><MEAN_ELEMENT_THEORY>SGP4</MEAN_ELEMENT_THEORY></metadata><data><meanElements><EPOCH>2025-12-14T08:01:29.940384</EPOCH><MEAN_MOTION>15.34444748</MEAN_MOTION><ECCENTRICITY>.00197133</ECCENTRICITY><INCLINATION>51.8802</INCLINATION><RA_OF_ASC_NODE>12.7406</RA_OF_ASC_NODE><ARG_OF_PERICENTER>6.9765</ARG_OF_PERICENTER><MEAN_ANOMALY>353.1491</MEAN_ANOMALY></meanElements><tleParameters><EPHEMERIS_TYPE>0</EPHEMERIS_TYPE><CLASSIFICATION_TYPE>U</CLASSIFICATION_TYPE><NORAD_CAT_ID>65966</NORAD_CAT_ID><ELEMENT_SET_NO>999</ELEMENT_SET_NO><REV_AT_EPOCH>1066</REV_AT_EPOCH><BSTAR>-.71524375E-1</BSTAR><MEAN_MOTION_DOT>-.2194635E-1</MEAN_MOTION_DOT><MEAN_MOTION_DDOT>0</MEAN_MOTION_DDOT></tleParameters></data></segment></body></omm>
<omm id="CCSDS_OMM_VERS" version="2.0">
<header><CREATION_DATE/><ORIGINATOR/></header><body><segment><metadata><OBJECT_NAME>KUIPER-00146</OBJECT_NAME><OBJECT_ID>2025-228W</OBJECT_ID><CENTER_NAME>EARTH</CENTER_NAME><REF_FRAME>TEME</REF_FRAME><TIME_SYSTEM>UTC</TIME_SYSTEM><MEAN_ELEMENT_THEORY>SGP4</MEAN_ELEMENT_THEORY></metadata><data><meanElements><EPOCH>2025-12-14T08:18:02.130336</EPOCH><MEAN_MOTION>15.35806990</MEAN_MOTION><ECCENTRICITY>.0007663</ECCENTRICITY><INCLINATION>51.8818</INCLINATION><RA_OF_ASC_NODE>12.8254</RA_OF_ASC_NODE><ARG_OF_PERICENTER>26.0485</ARG_OF_PERICENTER><MEAN_ANOMALY>334.0885</MEAN_ANOMALY></meanElements><tleParameters><EPHEMERIS_TYPE>0</EPHEMERIS_TYPE><CLASSIFICATION_TYPE>U</CLASSIFICATION_TYPE><NORAD_CAT_ID>65967</NORAD_CAT_ID><ELEMENT_SET_NO>999</ELEMENT_SET_NO><REV_AT_EPOCH>1066</REV_AT_EPOCH><BSTAR>.12999219E-2</BSTAR><MEAN_MOTION_DOT>.45915E-3</MEAN_MOTION_DOT><MEAN_MOTION_DDOT>0</MEAN_MOTION_DDOT></tleParameters></data></segment></body></omm>
<omm id="CCSDS_OMM_VERS" version="2.0">
<header><CREATION_DATE/><ORIGINATOR/></header><body><segment><metadata><OBJECT_NAME>KUIPER-00149</OBJECT_NAME><OBJECT_ID>2025-228X</OBJECT_ID><CENTER_NAME>EARTH</CENTER_NAME><REF_FRAME>TEME</REF_FRAME><TIME_SYSTEM>UTC</TIME_SYSTEM><MEAN_ELEMENT_THEORY>SGP4</MEAN_ELEMENT_THEORY></metadata><data><meanElements><EPOCH>2025-12-14T07:58:11.768160</EPOCH><MEAN_MOTION>15.36050401</MEAN_MOTION><ECCENTRICITY>.0005179</ECCENTRICITY><INCLINATION>51.8824</INCLINATION><RA_OF_ASC_NODE>12.7270</RA_OF_ASC_NODE><ARG_OF_PERICENTER>25.8266</ARG_OF_PERICENTER><MEAN_ANOMALY>334.2978</MEAN_ANOMALY></meanElements><tleParameters><EPHEMERIS_TYPE>0</EPHEMERIS_TYPE><CLASSIFICATION_TYPE>U</CLASSIFICATION_TYPE><NORAD_CAT_ID>65968</NORAD_CAT_ID><ELEMENT_SET_NO>999</ELEMENT_SET_NO><REV_AT_EPOCH>1066</REV_AT_EPOCH><BSTAR>.80333329E-3</BSTAR><MEAN_MOTION_DOT>.28371E-3</MEAN_MOTION_DOT><MEAN_MOTION_DDOT>0</MEAN_MOTION_DDOT></tleParameters></data></segment></body></omm>
<omm id="CCSDS_OMM_VERS" version="2.0">
<header><CREATION_DATE/><ORIGINATOR/></header><body><segment><metadata><OBJECT_NAME>KUIPER-00154</OBJECT_NAME><OBJECT_ID>2025-228Y</OBJECT_ID><CENTER_NAME>EARTH</CENTER_NAME><REF_FRAME>TEME</REF_FRAME><TIME_SYSTEM>UTC</TIME_SYSTEM><MEAN_ELEMENT_THEORY>SGP4</MEAN_ELEMENT_THEORY></metadata><data><meanElements><EPOCH>2025-12-14T08:04:31.800288</EPOCH><MEAN_MOTION>15.36010956</MEAN_MOTION><ECCENTRICITY>.00066344</ECCENTRICITY><INCLINATION>51.8814</INCLINATION><RA_OF_ASC_NODE>12.7564</RA_OF_ASC_NODE><ARG_OF_PERICENTER>11.3897</ARG_OF_PERICENTER><MEAN_ANOMALY>348.7238</MEAN_ANOMALY></meanElements><tleParameters><EPHEMERIS_TYPE>0</EPHEMERIS_TYPE><CLASSIFICATION_TYPE>U</CLASSIFICATION_TYPE><NORAD_CAT_ID>65969</NORAD_CAT_ID><ELEMENT_SET_NO>999</ELEMENT_SET_NO><REV_AT_EPOCH>1066</REV_AT_EPOCH><BSTAR>.14149243E-2</BSTAR><MEAN_MOTION_DOT>.5036E-3</MEAN_MOTION_DOT><MEAN_MOTION_DDOT>0</MEAN_MOTION_DDOT></tleParameters></data></segment></body></omm>

</ndm>
