KUIPER-00136            
1 65962U 25228R   25346.32696814  .00054287  00000+0  16334-2 0  9990
2 65962  51.8802  22.5265 0005623  11.4646 348.6467 15.33829149 10356
KUIPER-00137            
1 65963U 25228S   25348.34923487  .00050586  00000+0  14236-2 0  9991
2 65963  51.8808  12.8466 0006551  31.4720 328.6658 15.35958450 10668
KUIPER-00138            
1 65964U 25228T   25348.28818576  .00047670  00000+0  13409-2 0  9998
2 65964  51.8795  13.1767 0007980  34.3160 325.8340 15.35989969 10654
KUIPER-00140            
1 65965U 25228U   25348.29784532  .00034605  00000+0  10038-2 0  9993
2 65965  51.8802  13.2453 0007865  27.8941 332.2465 15.35177618 10653
KUIPER-00141            
1 65966U 25228V   25348.33437431 -.02194635  00000+0 -71524-1 0  9992
2 65966  51.8802  12.7406 0019713   6.9765 353.1491 15.34444748 10665
KUIPER-00146            
1 65967U 25228W   25348.34585799  .00045915  00000+0  12999-2 0  9999
2 65967  51.8818  12.8254 0007663  26.0485 334.0885 15.35806990 10665
KUIPER-00149            
1 65968U 25228X   25348.33208065  .00028371  00000+0  80333-3 0  9992
2 65968  51.8824  12.7270 0005179  25.8266 334.2978 15.36050401 10668
KUIPER-00154            
1 65969U 25228Y   25348.33647917  .00050360  00000+0  14149-2 0  9990
2 65969  51.8814  12.7564 0006634  11.3897 348.7238 15.36010956 10661
